NORAD_CAT_ID,OBJECT_NAME,OBJECT_TYPE,EPOCH,MEAN_MOTION,ECCENTRICITY,INCLINATION,RA_OF_ASC_NODE,ARG_OF_PERICENTER,MEAN_ANOMALY,BSTAR,MEAN_MOTION_DOT,MEAN_MOTION_DDOT,TLE_LINE0,TLE_LINE1,TLE_LINE2,SEMIMAJOR_AXIS,PERIOD,APOGEE,PERIGEE,DECAYED
51881.0,STARLINK-3504,PAYLOAD,2022-06-29 22:00:00,15.08853614,0.0001744,53.217,294.0001,46.3619,257.6598,-0.0016589,-0.00026603,0.0,0 STARLINK-3504,1 51881U 22022AF  22180.91667824 -.00026603  00000-0 -16589-2 0  9997,2 51881  53.2170 294.0001 0001744  46.3619 257.6598 15.08853614 19681,6917.839,95.437,540.91,538.497,0.0
51881.0,STARLINK-3504,PAYLOAD,2022-06-30 14:00:01,15.088494400000002,0.000179,53.2173,291.0079,48.5328,278.6895,-0.00073264,-0.00011932,0.0,0 STARLINK-3504,1 51881U 22022AF  22181.58334491 -.00011932  00000-0 -73264-3 0  9995,2 51881  53.2173 291.0079 0001790  48.5328 278.6895 15.08849440  1303,6917.852,95.437,540.955,538.4780000000002,0.0
51881.0,STARLINK-3504,PAYLOAD,2022-06-30 22:00:00,15.08866266,0.0001743,53.2171,289.5112,46.9666,291.8521,-0.0020596,-0.00032941,0.0,0 STARLINK-3504,1 51881U 22022AF  22181.91667824 -.00032941  00000-0 -20596-2 0  9993,2 51881  53.2171 289.5112 0001743  46.9666 291.8521 15.08866266  1304,6917.8,95.436,540.871,538.4590000000002,0.0
51881.0,STARLINK-3504,PAYLOAD,2022-07-01 14:00:01,15.08870744,0.0001739,53.2171,286.5192,47.7862,314.2655,-0.0023304,-0.00037217,0.0,0 STARLINK-3504,1 51881U 22022AF  22182.58334491 -.00037217  00000-0 -23304-2 0  9999,2 51881  53.2171 286.5192 0001739  47.7862 314.2655 15.08870744  1305,6917.786,95.436,540.854,538.448,0.0
51881.0,STARLINK-3504,PAYLOAD,2022-07-01 22:00:00,15.08858679,0.0001628,53.2167,285.0221,45.4275,328.2395,-0.0028692,-0.00045685,0.0,0 STARLINK-3504,1 51881U 22022AF  22182.91667824 -.00045685  00000-0 -28692-2 0  9998,2 51881  53.2167 285.0221 0001628  45.4275 328.2395 15.08858679  1306,6917.823,95.436,540.815,538.562,0.0
51881.0,STARLINK-3504,PAYLOAD,2022-07-02 14:00:01,15.08843204,0.0001667,53.2166,282.0304,46.4615,350.4007,-0.00032113,-5.396e-05,0.0,0 STARLINK-3504,1 51881U 22022AF  22183.58334491 -.00005396  00000-0 -32113-3 0  9992,2 51881  53.2166 282.0304 0001667  46.4615 350.4007 15.08843204 20087,6917.871,95.437,540.889,538.582,0.0
51881.0,STARLINK-3504,PAYLOAD,2022-07-02 22:00:00,15.08872416,0.0001603,53.216,280.5331,45.7476,2.721,-0.0016098,-0.00025839,0.0,0 STARLINK-3504,1 51881U 22022AF  22183.91667824 -.00025839  00000-0 -16098-2 0  9995,2 51881  53.2160 280.5331 0001603  45.7476   2.7210 15.08872416  1305,6917.781,95.436,540.755,538.5369999999998,0.0
51881.0,STARLINK-3504,PAYLOAD,2022-07-03 06:00:00,15.08861146,0.0001472,53.2161,279.0359,51.9322,8.1582,0.0012802999999999,0.00020158,0.0,0 STARLINK-3504,1 51881U 22022AF  22184.25001157  .00020158  00000-0  12803-2 0  9991,2 51881  53.2161 279.0359 0001472  51.9322   8.1582 15.08861146 20189,6917.816,95.436,540.6990000000002,538.6619999999998,0.0
51881.0,STARLINK-3504,PAYLOAD,2022-07-03 14:00:01,15.0886322,0.0001636,53.2158,277.5414,45.3946,26.3218,-0.0037303,-0.00059206,0.0,0 STARLINK-3504,1 51881U 22022AF  22184.58334491 -.00059206  00000-0 -37303-2 0  9997,2 51881  53.2158 277.5414 0001636  45.3946  26.3218 15.08863220 20230,6917.809,95.436,540.806,538.543,0.0
51881.0,STARLINK-3504,PAYLOAD,2022-07-03 22:00:00,15.08833862,0.0001588,53.2154,276.04400000000004,46.5685,36.7404,-0.0023623,-0.00037682,0.0,0 STARLINK-3504,1 51881U 22022AF  22184.91667824 -.00037682  00000-0 -23623-2 0  9997,2 51881  53.2154 276.0440 0001588  46.5685  36.7404 15.08833862  1306,6917.899,95.438,540.863,538.6659999999998,0.0
51881.0,STARLINK-3504,PAYLOAD,2022-07-04 06:00:00,15.08814633,0.0001524,53.2154,274.5468,52.9266,41.9513,0.001225,0.00019248,0.0,0 STARLINK-3504,1 51881U 22022AF  22185.25001157  .00019248  00000-0  12250-2 0  9996,2 51881  53.2154 274.5468 0001524  52.9266  41.9513 15.08814633 20333,6917.958000000001,95.439,540.877,538.769,0.0
51881.0,STARLINK-3504,PAYLOAD,2022-07-04 14:00:01,15.08815693,0.0001709,53.2153,273.052,46.1387,60.3147,0.0005248,8.069e-05,0.0,0 STARLINK-3504,1 51881U 22022AF  22185.58334491  .00008069  00000-0  52480-3 0  9991,2 51881  53.2153 273.0520 0001709  46.1387  60.3147 15.08815693  1300,6917.955,95.439,541.002,538.637,0.0
51881.0,STARLINK-3504,PAYLOAD,2022-07-04 22:00:00,15.08844296,0.0001625,53.215,271.5547,46.2718,71.7524,-0.0015864,-0.0002545,0.0,0 STARLINK-3504,1 51881U 22022AF  22185.91667824 -.00025450  00000-0 -15864-2 0  9996,2 51881  53.2150 271.5547 0001625  46.2718  71.7524 15.08844296  1301,6917.8669999999975,95.437,540.856,538.6080000000002,0.0
51881.0,STARLINK-3504,PAYLOAD,2022-07-05 06:00:00,15.08835738,0.000159,53.2153,270.0575,52.0871,77.5218,0.00093386,0.00014604,0.0,0 STARLINK-3504,1 51881U 22022AF  22186.25001157  .00014604  00000-0  93386-3 0  9998,2 51881  53.2153 270.0575 0001590  52.0871  77.5218 15.08835738 20480,6917.893,95.438,540.8580000000002,538.658,0.0
51881.0,STARLINK-3504,PAYLOAD,2022-07-05 14:00:01,15.08832717,0.0001788,53.2152,268.5629,45.5995,95.6105,0.00112,0.00017578,0.0,0 STARLINK-3504,1 51881U 22022AF  22186.58334491  .00017578  00000-0  11200-2 0  9991,2 51881  53.2152 268.5629 0001788  45.5995  95.6105 15.08832717  1304,6917.903,95.438,541.005,538.531,0.0
51881.0,STARLINK-3504,PAYLOAD,2022-07-05 22:00:00,15.08860063,0.000173,53.2152,267.0652,47.6804,105.1179,-0.004275,-0.00067723,0.0,0 STARLINK-3504,1 51881U 22022AF  22186.91667824 -.00067723  00000-0 -42750-2 0  9990,2 51881  53.2152 267.0652 0001730  47.6804 105.1179 15.08860063  1306,6917.819,95.436,540.881,538.487,0.0
51881.0,STARLINK-3504,PAYLOAD,2022-07-06 14:00:01,15.08810822,0.0001938,53.2156,264.0735,47.2081,128.7592,0.0016097,0.00025403,0.0,0 STARLINK-3504,1 51881U 22022AF  22187.58334491  .00025403  00000-0  16097-2 0  9997,2 51881  53.2156 264.0735 0001938  47.2081 128.7592 15.08810822 20682,6917.97,95.439,541.175,538.494,0.0
51881.0,STARLINK-3504,PAYLOAD,2022-07-06 22:00:00,15.08841387,0.0001816,53.2157,262.5757,48.8957,138.6434,-0.0014264,-0.00022919,0.0,0 STARLINK-3504,1 51881U 22022AF  22187.91667824 -.00022919  00000-0 -14264-2 0  9998,2 51881  53.2157 262.5757 0001816  48.8957 138.6434 15.08841387  1307,6917.876,95.437,540.997,538.485,0.0
51881.0,STARLINK-3504,PAYLOAD,2022-07-07 11:28:49,15.08838425,0.0001764,53.2172,260.0544,50.3055,309.8092,4.8576e-05,4.85e-06,0.0,0 STARLINK-3504,1 51881U 22022AF  22188.47835046  .00000485  00000-0  48576-4 0  9990,2 51881  53.2172 260.0544 0001764  50.3055 309.8092 15.08838425 20829,6917.885,95.438,540.971,538.53,0.0
51881.0,STARLINK-3504,PAYLOAD,2022-07-07 22:00:00,15.088506900000002,0.0001841,53.2163,258.0861,49.4156,172.8948,-0.0011970999999999,-0.00019295,0.0,0 STARLINK-3504,1 51881U 22022AF  22188.91667824 -.00019295  00000-0 -11971-2 0  9994,2 51881  53.2163 258.0861 0001841  49.4156 172.8948 15.08850690  1303,6917.848000000001,95.437,540.986,538.439,0.0
51881.0,STARLINK-3504,PAYLOAD,2022-07-08 08:08:49,15.08844441,0.000181,53.2169,256.1889,51.0928,309.0225,0.0002069,3.007e-05,0.0,0 STARLINK-3504,1 51881U 22022AF  22189.33946295  .00003007  00000-0  20690-3 0  9994,2 51881  53.2169 256.1889 0001810  51.0928 309.0225 15.08844441 20951,6917.8669999999975,95.437,540.984,538.48,0.0
51881.0,STARLINK-3504,PAYLOAD,2022-07-08 12:54:58,15.08853763,0.0001865,53.2161,255.2967,51.572,308.5440000000001,0.00036594,5.543e-05,0.0,0 STARLINK-3504,1 51881U 22022AF  22189.53818281  .00005543  00000-0  36594-3 0  9996,2 51881  53.2161 255.2967 0001865  51.5720 308.5440 15.08853763 20988,6917.8380000000025,95.437,540.993,538.413,0.0
51881.0,STARLINK-3504,PAYLOAD,2022-07-08 22:00:01,15.08872102,0.0001791,53.2164,253.5967,48.1825,209.0759,-0.0016445,-0.00026388,0.0,0 STARLINK-3504,1 51881U 22022AF  22189.91668981 -.00026388  00000-0 -16445-2 0  9992,2 51881  53.2164 253.5967 0001791  48.1825 209.0759 15.08872102  1309,6917.781999999997,95.436,540.886,538.408,0.0
51881.0,STARLINK-3504,PAYLOAD,2022-07-09 14:00:01,15.08797243,0.000185,53.2163,250.6057,43.6364,236.7618,-0.00092746,-0.00015001,0.0,0 STARLINK-3504,1 51881U 22022AF  22190.58334491 -.00015001  00000-0 -92746-3 0  9992,2 51881  53.2163 250.6057 0001850  43.6364 236.7618 15.08797243  1303,6918.011,95.44,541.156,538.596,0.0
51881.0,STARLINK-3504,PAYLOAD,2022-07-09 16:00:00,15.08795658,0.0001798,53.216,250.2314,41.3362,331.9480000000001,-0.0011993,-0.00019301,0.0,0 STARLINK-3504,1 51881U 22022AF  22190.66667824 -.00019301  00000-0 -11993-2 0  9991,2 51881  53.2160 250.2314 0001798  41.3362 331.9480 15.08795658 21154,6918.016,95.44,541.125,538.637,0.0
51881.0,STARLINK-3504,PAYLOAD,2022-07-09 20:00:01,15.08782194,0.0001661,53.2161,249.4822,43.1035,155.95,-0.000495,-8.145e-05,0.0,0 STARLINK-3504,1 51881U 22022AF  22190.83334491 -.00008145  00000-0 -49500-3 0  9991,2 51881  53.2161 249.4822 0001661  43.1035 155.9500 15.08782194  1308,6918.057,95.441,541.071,538.773,0.0
51881.0,STARLINK-3504,PAYLOAD,2022-07-10 06:00:00,15.08821831,0.0001537,53.2162,247.6119,45.6931,257.759,-0.0010468,-0.00016901,0.0,0 STARLINK-3504,1 51881U 22022AF  22191.25001157 -.00016901  00000-0 -10468-2 0  9997,2 51881  53.2162 247.6119 0001537  45.6931 257.7590 15.08821831 21238,6917.936,95.439,540.864,538.738,0.0
51881.0,STARLINK-3504,PAYLOAD,2022-07-10 14:00:01,15.08785052,0.0001747,53.2158,246.1171,40.2563,274.7661,0.0032691,0.00052046,0.0,0 STARLINK-3504,1 51881U 22022AF  22191.58334491  .00052046  00000-0  32691-2 0  9993,2 51881  53.2158 246.1171 0001747  40.2563 274.7661 15.08785052  1308,6918.0480000000025,95.441,541.122,538.705,0.0
51881.0,STARLINK-3504,PAYLOAD,2022-07-10 22:00:00,15.08815361,0.0001614,53.2155,244.6192,45.7616,280.8146,0.0022214,0.00035219,0.0,0 STARLINK-3504,1 51881U 22022AF  22191.91667824  .00035219  00000-0  22214-2 0  9992,2 51881  53.2155 244.6192 0001614  45.7616 280.8146 15.08815361 21331,6917.956,95.439,540.937,538.7040000000002,0.0
